ONEWEB-0311             
1 49097U 21075Y   24235.79355306  .00000041  00000+0  72823-4 0  9998
2 49097  87.9179 137.9855 0002326  73.2833 286.8554 13.17646549146262
ONEWEB-0312             
1 49098U 21075Z   24235.95996303  .00000129  00000+0  29969-3 0  9994
2 49098  87.9178 137.9844 0002332  82.9263 277.2134 13.17647228146264
ONEWEB-0313             
1 49099U 21075AA  24235.78547206  .00000078  00000+0  16768-3 0  9996
2 49099  87.9176 138.0215 0002165  79.2010 280.9365 13.17647997146237
ONEWEB-0314             
1 49100U 21075AB  24235.77901053  .00000130  00000+0  30150-3 0  9992
2 49100  87.9173 137.9776 0002373  82.5607 277.5794 13.17648266146202
ONEWEB-0315             
1 49101U 21075AC  24235.71732466 -.00000561  00000+0 -15950-2 0  9997
2 49101  87.8917 122.8017 0001811  72.4787 287.6540 13.12441516148142
ONEWEB-0316             
1 49102U 21075AD  24235.92301200  .00000067  00000+0  13751-3 0  9996
2 49102  87.9103 107.5051 0001977  76.4006 283.7347 13.18683922149799
ONEWEB-0317             
1 49103U 21075AE  24235.93954503 -.00000167  00000+0 -49830-3 0  9998
2 49103  87.8919 122.7684 0001424  84.8891 275.2400 13.12443323148199
ONEWEB-0318             
1 49104U 21075AF  24235.69222242  .00000048  00000+0  87845-4 0  9995
2 49104  87.9101 107.5429 0002074  74.9264 285.2097 13.18684030149729
